******** Week 855 almanac for PRN-19 ********
ID:                         19
Health:                     000
Eccentricity:               0.1127767563E-001
Time of Applicability(s):  147456.0000
Orbital Inclination(rad):   0.9720968079
Rate of Right Ascen(r/s):  -0.8126052768E-008
SQRT(A)  (m 1/2):           5155.138672
Right Ascen at Week(rad):  -0.7367257320E+000
Argument of Perigee(rad):   0.671379873
Mean Anom(rad):            -0.7601623818E+000
Af0(s):                    -0.5245208740E-003
Af1(s/s):                   0.0000000000E+000
week:                        855

******** Week 855 almanac for PRN-20 ********
ID:                         20
Health:                     000
Eccentricity:               0.4985332489E-002
Time of Applicability(s):  147456.0000
Orbital Inclination(rad):   0.9259036130
Rate of Right Ascen(r/s):  -0.8206056101E-008
SQRT(A)  (m 1/2):           5153.618652
Right Ascen at Week(rad):   0.1183000666E+001
Argument of Perigee(rad):   1.315375792
Mean Anom(rad):             0.1111695276E+001
Af0(s):                     0.3852844238E-003
Af1(s/s):                   0.3637978807E-011
week:                        855

******** Week 855 almanac for PRN-21 ********
ID:                         21
Health:                     000
Eccentricity:               0.2293109894E-001
Time of Applicability(s):  147456.0000
Orbital Inclination(rad):   0.9358085749
Rate of Right Ascen(r/s):  -0.7886042771E-008
SQRT(A)  (m 1/2):           5153.643555
Right Ascen at Week(rad):   0.1927816124E+000
Argument of Perigee(rad):  -1.844467712
Mean Anom(rad):            -0.1991361353E+001
Af0(s):                    -0.5044937134E-003
Af1(s/s):                  -0.3637978807E-011
week:                        855

******** Week 855 almanac for PRN-22 ********
ID:                         22
Health:                     000
Eccentricity:               0.7538795471E-002
Time of Applicability(s):  147456.0000
Orbital Inclination(rad):   0.9224701326
Rate of Right Ascen(r/s):  -0.8286059433E-008
SQRT(A)  (m 1/2):           5155.038574
Right Ascen at Week(rad):   0.1235824507E+001
Argument of Perigee(rad):  -2.029110538
Mean Anom(rad):             0.2563887474E+001
Af0(s):                     0.4119873047E-003
Af1(s/s):                  -0.3637978807E-011
week:                        855

******** Week 855 almanac for PRN-23 ********
ID:                         23
Health:                     000
Eccentricity:               0.1041793823E-001
Time of Applicability(s):  147456.0000
Orbital Inclination(rad):   0.9466123537
Rate of Right Ascen(r/s):  -0.8183198006E-008
SQRT(A)  (m 1/2):           5153.678223
Right Ascen at Week(rad):   0.2310952169E+001
Argument of Perigee(rad):  -2.617277945
Mean Anom(rad):             0.5894463490E+000
Af0(s):                    -0.1544952393E-003
Af1(s/s):                  -0.3637978807E-011
week:                        855

******** Week 855 almanac for PRN-24 ********
ID:                         24
Health:                     000
Eccentricity:               0.4092693329E-002
Time of Applicability(s):  147456.0000
Orbital Inclination(rad):   0.9513940594
Rate of Right Ascen(r/s):  -0.7794610391E-008
SQRT(A)  (m 1/2):           5153.594238
Right Ascen at Week(rad):  -0.2946344163E+001
Argument of Perigee(rad):   0.329374437
Mean Anom(rad):            -0.2012900376E-001
Af0(s):                    -0.1049041748E-004
Af1(s/s):                   0.0000000000E+000
week:                        855

******** Week 855 almanac for PRN-25 ********
ID:                         25
Health:                     000
Eccentricity:               0.4948616028E-002
Time of Applicability(s):  147456.0000
Orbital Inclination(rad):   0.9784364629
Rate of Right Ascen(r/s):  -0.7977475151E-008
SQRT(A)  (m 1/2):           5153.526855
Right Ascen at Week(rad):  -0.1877747530E+001
Argument of Perigee(rad):   0.694180610
Mean Anom(rad):            -0.1993971292E+001
Af0(s):                    -0.9822845459E-004
Af1(s/s):                  -0.7275957614E-011
week:                        855

******** Week 855 almanac for PRN-26 ********
ID:                         26
Health:                     000
Eccentricity:               0.6875991821E-003
Time of Applicability(s):  147456.0000
Orbital Inclination(rad):   0.9604781019
Rate of Right Ascen(r/s):  -0.8160339911E-008
SQRT(A)  (m 1/2):           5153.642578
Right Ascen at Week(rad):  -0.1884324997E+001
Argument of Perigee(rad):  -0.235669034
Mean Anom(rad):            -0.2417461593E+001
Af0(s):                    -0.2069473267E-003
Af1(s/s):                  -0.1818989404E-010
week:                        855

******** Week 855 almanac for PRN-27 ********
ID:                         27
Health:                     000
Eccentricity:               0.3003597260E-002
Time of Applicability(s):  147456.0000
Orbital Inclination(rad):   0.9698857184
Rate of Right Ascen(r/s):  -0.8206056101E-008
SQRT(A)  (m 1/2):           5153.578613
Right Ascen at Week(rad):  -0.8349259689E+000
Argument of Perigee(rad):   0.218764536
Mean Anom(rad):             0.1861522762E+001
Af0(s):                     0.5245208740E-004
Af1(s/s):                   0.3637978807E-011
week:                        855

******** Week 855 almanac for PRN-28 ********
ID:                         28
Health:                     000
Eccentricity:               0.2002382278E-001
Time of Applicability(s):  147456.0000
Orbital Inclination(rad):   0.9892582180
Rate of Right Ascen(r/s):  -0.7886042771E-008
SQRT(A)  (m 1/2):           5153.657715
Right Ascen at Week(rad):  -0.1804563239E+001
Argument of Perigee(rad):  -1.629906269
Mean Anom(rad):             0.2594974179E+001
Af0(s):                     0.4949569702E-003
Af1(s/s):                   0.3637978807E-011
week:                        855

******** Week 855 almanac for PRN-29 ********
ID:                         29
Health:                     000
Eccentricity:               0.9694099426E-003
Time of Applicability(s):  147456.0000
Orbital Inclination(rad):   0.9759137836
Rate of Right Ascen(r/s):  -0.8114623721E-008
SQRT(A)  (m 1/2):           5153.582520
Right Ascen at Week(rad):  -0.7762216177E+000
Argument of Perigee(rad):  -0.600487565
Mean Anom(rad):            -0.1843350183E+001
Af0(s):                     0.6513595581E-003
Af1(s/s):                   0.0000000000E+000
week:                        855

******** Week 855 almanac for PRN-30 ********
ID:                         30
Health:                     000
Eccentricity:               0.1640796661E-002
Time of Applicability(s):  147456.0000
Orbital Inclination(rad):   0.9540485652
Rate of Right Ascen(r/s):  -0.7737465154E-008
SQRT(A)  (m 1/2):           5153.607422
Right Ascen at Week(rad):  -0.2855497747E+001
Argument of Perigee(rad):   3.085235712
Mean Anom(rad):            -0.9855388389E+000
Af0(s):                     0.8296966553E-004
Af1(s/s):                   0.3637978807E-011
week:                        855

******** Week 855 almanac for PRN-31 ********
ID:                         31
Health:                     000
Eccentricity:               0.8368968964E-002
Time of Applicability(s):  147456.0000
Orbital Inclination(rad):   0.9731274513
Rate of Right Ascen(r/s):  -0.7531742299E-008
SQRT(A)  (m 1/2):           5153.634277
Right Ascen at Week(rad):  -0.2892830854E+001
Argument of Perigee(rad):  -0.457331130
Mean Anom(rad):            -0.1016632285E+001
Af0(s):                     0.2870559692E-003
Af1(s/s):                   0.0000000000E+000
week:                        855

******** Week 855 almanac for PRN-32 ********
ID:                         32
Health:                     000
Eccentricity:               0.1134586334E-001
Time of Applicability(s):  147456.0000
Orbital Inclination(rad):   0.9463846534
Rate of Right Ascen(r/s):  -0.8068907531E-008
SQRT(A)  (m 1/2):           5153.569824
Right Ascen at Week(rad):   0.1342206599E+001
Argument of Perigee(rad):   0.209700716
Mean Anom(rad):            -0.5918334568E+000
Af0(s):                     0.7724761963E-004
Af1(s/s):                   0.1091393642E-010
week:                        855